[{"OBJECT_NAME":"STARLINK-4497","OBJECT_ID":"2022-097Z","EPOCH":"2026-03-09T12:26:16.118304","MEAN_MOTION":15.08861686,"ECCENTRICITY":0.00012612,"INCLINATION":53.2164,"RA_OF_ASC_NODE":114.8896,"ARG_OF_PERICENTER":91.3965,"MEAN_ANOMALY":268.7172,"EPHEMERIS_TYPE":0,"CLASSIFICATION_TYPE":"U","NORAD_CAT_ID":53411,"ELEMENT_SET_NO":999,"REV_AT_EPOCH":19862,"BSTAR":0.00014200501,"MEAN_MOTION_DOT":1.974e-5,"MEAN_MOTION_DDOT":0},{"OBJECT_NAME":"CZ-6A DEB","OBJECT_ID":"2024-140GC","EPOCH":"2026-03-09T13:34:49.028736","MEAN_MOTION":14.75009559,"ECCENTRICITY":0.0165561,"INCLINATION":88.9161,"RA_OF_ASC_NODE":274.3109,"ARG_OF_PERICENTER":173.9196,"MEAN_ANOMALY":186.409,"EPHEMERIS_TYPE":0,"CLASSIFICATION_TYPE":"U","NORAD_CAT_ID":60801,"ELEMENT_SET_NO":999,"REV_AT_EPOCH":8449,"BSTAR":0.00072752,"MEAN_MOTION_DOT":6.141e-5,"MEAN_MOTION_DDOT":0}]
